{"type": "FeatureCollection", "features": [ {"type": "Feature", "properties": {"norad_id": 34570, "name": "COSMOS 2251 DEB", "group": "cosmos-2251-debris", "lat": -31.889625143832426, "lon": 50.24484016078407, "alt_km": 946.4334380020464, "timestamp": "2025-12-11T18:59:46.470030+00:00", "meta": {"OBJECT_NAME": "COSMOS 2251 DEB", "OBJECT_ID": "1993-036VG", "EPOCH": "2025-12-10T10:15:47.270880", "MEAN_MOTION": 13.99813899, "ECCENTRICITY": 0.01902081, "INCLINATION": 73.9575, "RA_OF_ASC_NODE": 222.3032, "ARG_OF_PERICENTER": 105.3156, "MEAN_ANOMALY": 75.4929, "EPHEMERIS_TYPE": 0, "CLASSIFICATION_TYPE": "U", "NORAD_CAT_ID": 34570, "ELEMENT_SET_NO": 999, "REV_AT_EPOCH": 85568, "BSTAR": 0.00064940557, "MEAN_MOTION_DOT": 1.09e-05, "MEAN_MOTION_DDOT": 0}, "tle": {"line1": "1 34570U 93036VG  25344.42763045  .00001090  00000+0  64941-3 0  9995", "line2": "2 34570  73.9575 222.3032 0190208 105.3156  75.4929 13.99813899855680"}}, "geometry": {"type": "Point", "coordinates": [50.24484016078407, -31.889625143832426]}}, {"type": "Feature", "properties": {"norad_id": 34571, "name": "COSMOS 2251 DEB", "group": "cosmos-2251-debris", "lat": -68.21528944396346, "lon": 49.945083475761756, "alt_km": 697.9986407703127, "timestamp": "2025-12-11T18:59:46.470041+00:00", "meta": {"OBJECT_NAME": "COSMOS 2251 DEB", "OBJECT_ID": "1993-036VH", "EPOCH": "2025-12-09T06:09:38.106720", "MEAN_MOTION": 14.48721172, "ECCENTRICITY": 0.0066557, "INCLINATION": 74.0386, "RA_OF_ASC_NODE": 188.9585, "ARG_OF_PERICENTER": 224.7562, "MEAN_ANOMALY": 134.8218, "EPHEMERIS_TYPE": 0, "CLASSIFICATION_TYPE": "U", "NORAD_CAT_ID": 34571, "ELEMENT_SET_NO": 999, "REV_AT_EPOCH": 87243, "BSTAR": 0.0025604, "MEAN_MOTION_DOT": 9.914e-05, "MEAN_MOTION_DDOT": 0}, "tle": {"line1": "1 34571U 93036VH  25343.25669105  .00009914  00000+0  25604-2 0  9993", "line2": "2 34571  74.0386 188.9585 0066557 224.7562 134.8218 14.48721172872439"}}, "geometry": {"type": "Point", "coordinates": [49.945083475761756, -68.21528944396346]}}, {"type": "Feature", "properties": {"norad_id": 34572, "name": "COSMOS 2251 DEB", "group": "cosmos-2251-debris", "lat": 62.86563388647637, "lon": -96.72859650620032, "alt_km": 710.3424467926206, "timestamp": "2025-12-11T18:59:46.470052+00:00", "meta": {"OBJECT_NAME": "COSMOS 2251 DEB", "OBJECT_ID": "1993-036VJ", "EPOCH": "2025-12-10T09:40:05.680992", "MEAN_MOTION": 14.49931847, "ECCENTRICITY": 0.00631641, "INCLINATION": 74.011, "RA_OF_ASC_NODE": 119.902, "ARG_OF_PERICENTER": 194.0511, "MEAN_ANOMALY": 233.1496, "EPHEMERIS_TYPE": 0, "CLASSIFICATION_TYPE": "U", "NORAD_CAT_ID": 34572, "ELEMENT_SET_NO": 999, "REV_AT_EPOCH": 87344, "BSTAR": 0.0046719563, "MEAN_MOTION_DOT": 0.00018558, "MEAN_MOTION_DDOT": 0}, "tle": {"line1": "1 34572U 93036VJ  25344.40284353  .00018558  00000+0  46720-2 0  9996", "line2": "2 34572  74.0110 119.9020 0063164 194.0511 233.1496 14.49931847873443"}}, "geometry": {"type": "Point", "coordinates": [-96.72859650620032, 62.86563388647637]}}, {"type": "Feature", "properties": {"norad_id": 34574, "name": "COSMOS 2251 DEB", "group": "cosmos-2251-debris", "lat": -65.08473517071906, "lon": 7.02510285098605, "alt_km": 700.2808298573482, "timestamp": "2025-12-11T18:59:46.470062+00:00", "meta": {"OBJECT_NAME": "COSMOS 2251 DEB", "OBJECT_ID": "1993-036VL", "EPOCH": "2025-12-10T10:43:39.407232", "MEAN_MOTION": 14.70563466, "ECCENTRICITY": 0.00668665, "INCLINATION": 74.069, "RA_OF_ASC_NODE": 47.5738, "ARG_OF_PERICENTER": 69.3099, "MEAN_ANOMALY": 305.6088, "EPHEMERIS_TYPE": 0, "CLASSIFICATION_TYPE": "U", "NORAD_CAT_ID": 34574, "ELEMENT_SET_NO": 999, "REV_AT_EPOCH": 88745, "BSTAR": 0.0013396408, "MEAN_MOTION_DOT": 8.403e-05, "MEAN_MOTION_DDOT": 0}, "tle": {"line1": "1 34574U 93036VL  25344.44698388  .00008403  00000+0  13396-2 0  9990", "line2": "2 34574  74.0690  47.5738 0066866  69.3099 305.6088 14.70563466887457"}}, "geometry": {"type": "Point", "coordinates": [7.02510285098605, -65.08473517071906]}}, {"type": "Feature", "properties": {"norad_id": 34576, "name": "COSMOS 2251 DEB", "group": "cosmos-2251-debris", "lat": -46.21776388123199, "lon": 122.61215557785677, "alt_km": 709.8863030323828, "timestamp": "2025-12-11T18:59:46.470073+00:00", "meta": {"OBJECT_NAME": "COSMOS 2251 DEB", "OBJECT_ID": "1993-036VN", "EPOCH": "2025-12-10T20:48:54.725184", "MEAN_MOTION": 14.55400775, "ECCENTRICITY": 0.0008018, "INCLINATION": 74.0338, "RA_OF_ASC_NODE": 141.7437, "ARG_OF_PERICENTER": 276.7745, "MEAN_ANOMALY": 234.197, "EPHEMERIS_TYPE": 0, "CLASSIFICATION_TYPE": "U", "NORAD_CAT_ID": 34576, "ELEMENT_SET_NO": 999, "REV_AT_EPOCH": 88439, "BSTAR": 0.0013283, "MEAN_MOTION_DOT": 5.748e-05, "MEAN_MOTION_DDOT": 0}, "tle": {"line1": "1 34576U 93036VN  25344.86730006  .00005748  00000+0  13283-2 0  9996", "line2": "2 34576  74.0338 141.7437 0008018 276.7745 234.1970 14.55400775884390"}}, "geometry": {"type": "Point", "coordinates": [122.61215557785677, -46.21776388123199]}}, {"type": "Feature", "properties": {"norad_id": 34579, "name": "COSMOS 2251 DEB", "group": "cosmos-2251-debris", "lat": -22.793056120903536, "lon": 52.56005765861974, "alt_km": 746.2741912411329, "timestamp": "2025-12-11T18:59:46.470084+00:00", "meta": {"OBJECT_NAME": "COSMOS 2251 DEB", "OBJECT_ID": "1993-036VR", "EPOCH": "2025-12-10T21:02:12.659424", "MEAN_MOTION": 14.45299672, "ECCENTRICITY": 0.0027575, "INCLINATION": 74.0529, "RA_OF_ASC_NODE": 227.3618, "ARG_OF_PERICENTER": 296.2863, "MEAN_ANOMALY": 188.9226, "EPHEMERIS_TYPE": 0, "CLASSIFICATION_TYPE": "U", "NORAD_CAT_ID": 34579, "ELEMENT_SET_NO": 999, "REV_AT_EPOCH": 88147, "BSTAR": 0.00061038, "MEAN_MOTION_DOT": 2.127e-05, "MEAN_MOTION_DDOT": 0}, "tle": {"line1": "1 34579U 93036VR  25344.87653541  .00002127  00000+0  61038-3 0  9998", "line2": "2 34579  74.0529 227.3618 0027575 296.2863 188.9226 14.45299672881471"}}, "geometry": {"type": "Point", "coordinates": [52.56005765861974, -22.793056120903536]}}, {"type": "Feature", "properties": {"norad_id": 34582, "name": "COSMOS 2251 DEB", "group": "cosmos-2251-debris", "lat": 29.24978147551617, "lon": 84.90609471542616, "alt_km": 765.1599895859581, "timestamp": "2025-12-11T18:59:46.470095+00:00", "meta": {"OBJECT_NAME": "COSMOS 2251 DEB", "OBJECT_ID": "1993-036VU", "EPOCH": "2025-12-11T05:00:06.039936", "MEAN_MOTION": 14.43310408, "ECCENTRICITY": 0.00477764, "INCLINATION": 74.0199, "RA_OF_ASC_NODE": 275.2246, "ARG_OF_PERICENTER": 25.6906, "MEAN_ANOMALY": 334.6608, "EPHEMERIS_TYPE": 0, "CLASSIFICATION_TYPE": "U", "NORAD_CAT_ID": 34582, "ELEMENT_SET_NO": 999, "REV_AT_EPOCH": 87925, "BSTAR": 0.0011878022, "MEAN_MOTION_DOT": 4.034e-05, "MEAN_MOTION_DDOT": 0}, "tle": {"line1": "1 34582U 93036VU  25345.20840324  .00004034  00000+0  11878-2 0  9992", "line2": "2 34582  74.0199 275.2246 0047776  25.6906 334.6608 14.43310408879250"}}, "geometry": {"type": "Point", "coordinates": [84.90609471542616, 29.24978147551617]}}, {"type": "Feature", "properties": {"norad_id": 34588, "name": "COSMOS 2251 DEB", "group": "cosmos-2251-debris", "lat": -26.95142340536214, "lon": 98.37742707526934, "alt_km": 762.8964422246172, "timestamp": "2025-12-11T18:59:46.470105+00:00", "meta": {"OBJECT_NAME": "COSMOS 2251 DEB", "OBJECT_ID": "1993-036WA", "EPOCH": "2025-12-11T06:56:51.235296", "MEAN_MOTION": 14.42015609, "ECCENTRICITY": 0.00191578, "INCLINATION": 74.0437, "RA_OF_ASC_NODE": 270.9426, "ARG_OF_PERICENTER": 323.7519, "MEAN_ANOMALY": 159.3626, "EPHEMERIS_TYPE": 0, "CLASSIFICATION_TYPE": "U", "NORAD_CAT_ID": 34588, "ELEMENT_SET_NO": 999, "REV_AT_EPOCH": 87929, "BSTAR": 0.00084551053, "MEAN_MOTION_DOT": 2.755e-05, "MEAN_MOTION_DDOT": 0}, "tle": {"line1": "1 34588U 93036WA  25345.28948189  .00002755  00000+0  84551-3 0  9991", "line2": "2 34588  74.0437 270.9426 0019157 323.7519 159.3626 14.42015609879297"}}, "geometry": {"type": "Point", "coordinates": [98.37742707526934, -26.95142340536214]}}, {"type": "Feature", "properties": {"norad_id": 34589, "name": "COSMOS 2251 DEB", "group": "cosmos-2251-debris", "lat": -56.37691358717279, "lon": -96.65505120845253, "alt_km": 1041.2114307884012, "timestamp": "2025-12-11T18:59:46.470116+00:00", "meta": {"OBJECT_NAME": "COSMOS 2251 DEB", "OBJECT_ID": "1993-036WB", "EPOCH": "2025-12-09T12:13:17.410656", "MEAN_MOTION": 13.8604857, "ECCENTRICITY": 0.02517935, "INCLINATION": 73.9254, "RA_OF_ASC_NODE": 61.5361, "ARG_OF_PERICENTER": 5.5277, "MEAN_ANOMALY": 13.2328, "EPHEMERIS_TYPE": 0, "CLASSIFICATION_TYPE": "U", "NORAD_CAT_ID": 34589, "ELEMENT_SET_NO": 999, "REV_AT_EPOCH": 84667, "BSTAR": 0.00037001793, "MEAN_MOTION_DOT": 5.22e-06, "MEAN_MOTION_DDOT": 0}, "tle": {"line1": "1 34589U 93036WB  25343.50922929  .00000522  00000+0  37002-3 0  9998", "line2": "2 34589  73.9254  61.5361 0251793   5.5277  13.2328 13.86048570846678"}}, "geometry": {"type": "Point", "coordinates": [-96.65505120845253, -56.37691358717279]}}, {"type": "Feature", "properties": {"norad_id": 34590, "name": "COSMOS 2251 DEB", "group": "cosmos-2251-debris", "lat": -8.03528075202771, "lon": -37.96930796392964, "alt_km": 723.6988635309872, "timestamp": "2025-12-11T18:59:46.470127+00:00", "meta": {"OBJECT_NAME": "COSMOS 2251 DEB", "OBJECT_ID": "1993-036WC", "EPOCH": "2025-12-10T08:56:51.819072", "MEAN_MOTION": 14.54821545, "ECCENTRICITY": 0.00679607, "INCLINATION": 74.0436, "RA_OF_ASC_NODE": 327.0281, "ARG_OF_PERICENTER": 97.3317, "MEAN_ANOMALY": 28.045, "EPHEMERIS_TYPE": 0, "CLASSIFICATION_TYPE": "U", "NORAD_CAT_ID": 34590, "ELEMENT_SET_NO": 999, "REV_AT_EPOCH": 89086, "BSTAR": 0.00020824957, "MEAN_MOTION_DOT": 8.92e-06, "MEAN_MOTION_DDOT": 0}, "tle": {"line1": "1 34590U 93036WC  25344.37282198  .00000892  00000+0  20825-3 0  9998", "line2": "2 34590  74.0436 327.0281 0067960  97.3317  28.0450 14.54821545890867"}}, "geometry": {"type": "Point", "coordinates": [-37.96930796392964, -8.03528075202771]}}]}